ONEWEB-0501             
1 54119U 22138G   24016.35543357  .00000476  00000+0  11557-2 0  9991
2 54119  87.9204 120.7082 0002004 119.1297 241.0036 13.19722478 60363
ONEWEB-0502             
1 54120U 22138H   24016.34121136 -.00000013  00000+0 -63953-4 0  9997
2 54120  87.9204 120.7019 0001920 115.5898 244.5433 13.19725246 60385
ONEWEB-0503             
1 54121U 22138J   24016.33014614 -.00000120  00000+0 -33091-3 0  9997
2 54121  87.9202 120.7121 0001288 111.2506 248.8764 13.19725337 60378
ONEWEB-0504             
1 54122U 22138K   24016.31752302  .00000122  00000+0  27350-3 0  9990
2 54122  87.9205 120.7166 0001756 119.9989 240.1318 13.19726301 60384
ONEWEB-0505             
1 54123U 22138L   24016.31435818  .00000161  00000+0  36942-3 0  9991
2 54123  87.9203 120.7145 0002308 122.9382 237.1973 13.19725374 60365
ONEWEB-0506             
1 54124U 22138M   24016.36490014 -.00000047  00000+0 -15055-3 0  9993
2 54124  87.9203 120.7008 0001906 112.6298 247.5037 13.19724335 60361
ONEWEB-0507             
1 54125U 22138N   24016.30961273 -.00000531  00000+0 -13578-2 0  9993
2 54125  87.9211 120.7200 0002106 110.9745 249.1613 13.19727620 60409
ONEWEB-0508             
1 54126U 22138P   24016.30645827  .00000168  00000+0  38770-3 0  9994
2 54126  87.9209 120.7189 0002239 117.2286 242.9075 13.19726723 60383
